NORAD_CAT_ID,OBJECT_NAME,OBJECT_TYPE,EPOCH,MEAN_MOTION,ECCENTRICITY,INCLINATION,RA_OF_ASC_NODE,ARG_OF_PERICENTER,MEAN_ANOMALY,BSTAR,MEAN_MOTION_DOT,MEAN_MOTION_DDOT,TLE_LINE0,TLE_LINE1,TLE_LINE2,SEMIMAJOR_AXIS,PERIOD,APOGEE,PERIGEE,DECAYED
53286.0,STARLINK-4165,PAYLOAD,2023-10-02 20:35:36,15.08838875,0.0001112,53.2167,214.2478,99.6141,260.4977,0.00015441,2.17e-05,0.0,0 STARLINK-4165,1 53286U 22086AW  23275.85806571  .00002170  00000-0  15441-3 0  9999,2 53286  53.2167 214.2478 0001112  99.6141 260.4977 15.08838875 66845,6917.884,95.438,540.518,538.98,0.0
53286.0,STARLINK-4165,PAYLOAD,2023-10-03 04:32:32,15.08855708,0.0001286,53.2166,212.763,96.4781,263.6358,0.00094419,0.00014777,0.0,0 STARLINK-4165,1 53286U 22086AW  23276.18926293  .00014777  00000-0  94419-3 0  9998,2 53286  53.2166 212.7630 0001286  96.4781 263.6358 15.08855708 66891,6917.832,95.437,540.587,538.808,0.0
53286.0,STARLINK-4165,PAYLOAD,2023-10-03 12:29:27,15.08847515,0.0001315,53.217,211.2764,96.4034,263.7108,0.00049249,7.56e-05,0.0,0 STARLINK-4165,1 53286U 22086AW  23276.52046278  .00007560  00000-0  49249-3 0  9995,2 53286  53.2170 211.2764 0001315  96.4034 263.7108 15.08847515 66949,6917.857,95.437,540.632,538.813,0.0
53286.0,STARLINK-4165,PAYLOAD,2023-10-04 04:23:19,15.08847738,0.0001287,53.2161,208.3037,96.722,263.3918,0.00057785,8.922e-05,0.0,0 STARLINK-4165,1 53286U 22086AW  23277.18286546  .00008922  00000-0  57785-3 0  9999,2 53286  53.2161 208.3037 0001287  96.7220 263.3918 15.08847738 67041,6917.857,95.437,540.612,538.831,0.0
53286.0,STARLINK-4165,PAYLOAD,2023-10-04 12:20:15,15.0884175,0.0001855,53.2159,206.8175,85.7609,274.3595,0.00056243,8.675e-05,0.0,0 STARLINK-4165,1 53286U 22086AW  23277.51406943  .00008675  00000-0  56243-3 0  9994,2 53286  53.2159 206.8175 0001855  85.7609 274.3595 15.08841750 67258,6917.875,95.437,541.023,538.457,0.0
53286.0,STARLINK-4165,PAYLOAD,2023-10-05 05:49:29,15.08877049,0.0001408,53.2157,203.5469,92.3976,267.7177,0.0016278,0.0002574,0.0,0 STARLINK-4165,1 53286U 22086AW  23278.24270135  .00025740  00000-0  16278-2 0  9992,2 53286  53.2157 203.5469 0001408  92.3976 267.7177 15.08877049 67208,6917.767,95.435,540.606,538.658,0.0
53286.0,STARLINK-4165,PAYLOAD,2023-10-05 12:11:02,15.08847762,0.000122,53.2148,202.3573,80.5885,279.5245,0.00072062,0.00011202,0.0,0 STARLINK-4165,1 53286U 22086AW  23278.50766643  .00011202  00000-0  72062-3 0  9997,2 53286  53.2148 202.3573 0001220  80.5885 279.5245 15.08847762 67409,6917.857,95.437,540.566,538.878,0.0
53286.0,STARLINK-4165,PAYLOAD,2023-10-06 02:29:30,15.08849427,0.0001762,53.2152,199.6815,83.4613,276.658,0.0013347,0.00021023,0.0,0 STARLINK-4165,1 53286U 22086AW  23279.10382822  .00021023  00000-0  13347-2 0  9999,2 53286  53.2152 199.6815 0001762  83.4613 276.6580 15.08849427 67335,6917.852,95.437,540.935,538.498,0.0
53286.0,STARLINK-4165,PAYLOAD,2023-10-06 12:01:50,15.08842375,0.0002015,53.2149,197.8976,71.9732,288.148,0.00099602,0.000156,0.0,0 STARLINK-4165,1 53286U 22086AW  23279.50127336  .00015600  00000-0  99602-3 0  9993,2 53286  53.2149 197.8976 0002015  71.9732 288.1480 15.08842375 67551,6917.873,95.437,541.132,538.344,0.0
53286.0,STARLINK-4165,PAYLOAD,2023-10-07 00:44:55,15.08843147,0.0001582,53.2152,195.5169,78.6794,281.4376,0.0020034,0.00031743,0.0,0 STARLINK-4165,1 53286U 22086AW  23280.03119586  .00031743  00000-0  20034-2 0  9999,2 53286  53.2152 195.5169 0001582  78.6794 281.4376 15.08843147 67473,6917.871,95.437,540.83,538.641,0.0
53286.0,STARLINK-4165,PAYLOAD,2023-10-08 00:35:42,15.08872985,0.0001687,53.2159,191.0572,87.07,273.0485,0.0018841,0.00029852,0.0,0 STARLINK-4165,1 53286U 22086AW  23281.02479273  .00029852  00000-0  18841-2 0  9992,2 53286  53.2159 191.0572 0001687  87.0700 273.0485 15.08872985 67623,6917.78,95.435,540.812,538.478,0.0
53286.0,STARLINK-4165,PAYLOAD,2023-10-08 11:43:24,15.08851115,0.0001859,53.2165,188.9758,87.1097,273.0107,0.00078174,0.00012179,0.0,0 STARLINK-4165,1 53286U 22086AW  23281.48847293  .00012179  00000-0  78174-3 0  9993,2 53286  53.2165 188.9758 0001859  87.1097 273.0107 15.08851115 67850,6917.846,95.437,540.997,538.425,0.0
53286.0,STARLINK-4165,PAYLOAD,2023-10-08 18:04:56,15.08853784,0.0001669,53.2159,187.7866,87.82,272.2983,0.0011911,0.00018726,0.0,0 STARLINK-4165,1 53286U 22086AW  23281.75343037  .00018726  00000-0  11911-2 0  9999,2 53286  53.2159 187.7866 0001669  87.8200 272.2983 15.08853784 67736,6917.838,95.437,540.858,538.549,0.0
53286.0,STARLINK-4165,PAYLOAD,2023-10-08 21:15:42,15.08855193,0.0001378,53.2157,187.1921,93.3231,266.7919,0.0010524,0.00016508,0.0,0 STARLINK-4165,1 53286U 22086AW  23281.88590844  .00016508  00000-0  10524-2 0  9998,2 53286  53.2157 187.1921 0001378  93.3231 266.7919 15.08855193 67916,6917.834,95.437,540.652,538.746,0.0
53286.0,STARLINK-4165,PAYLOAD,2023-10-09 03:37:14,15.08872008,0.0001475,53.2167,186.0015,96.9474,263.1686,0.0012985,0.00020456,0.0,0 STARLINK-4165,1 53286U 22086AW  23282.15086284  .00020456  00000-0  12985-2 0  9997,2 53286  53.2167 186.0015 0001475  96.9474 263.1686 15.08872008 67955,6917.783,95.436,540.668,538.627,0.0
53286.0,STARLINK-4165,PAYLOAD,2023-10-09 17:55:43,15.08838805,0.0001975,53.2169,183.325,90.9242,269.1977,0.00078277,0.00012191,0.0,0 STARLINK-4165,1 53286U 22086AW  23282.74703283  .00012191  00000-0  78277-3 0  9991,2 53286  53.2169 183.3250 0001975  90.9242 269.1977 15.08838805 67888,6917.884,95.438,541.115,538.383,0.0
53286.0,STARLINK-4165,PAYLOAD,2023-10-09 21:06:29,15.08832258,0.0001453,53.2171,182.7304,105.1835,254.9318,0.00077241,0.00012024,0.0,0 STARLINK-4165,1 53286U 22086AW  23282.87951301  .00012024  00000-0  77241-3 0  9996,2 53286  53.2171 182.7304 0001453 105.1835 254.9318 15.08832258 68060,6917.904,95.438,540.774,538.764,0.0
53286.0,STARLINK-4165,PAYLOAD,2023-10-10 09:49:35,15.08836795,0.0001421,53.2169,180.3489,72.4922,287.6226,0.0005563,8.576e-05,0.0,0 STARLINK-4165,1 53286U 22086AW  23283.40943670  .00008576  00000-0  55630-3 0  9991,2 53286  53.2169 180.3489 0001421  72.4922 287.6226 15.08836795 67984,6917.89,95.438,540.738,538.772,0.0
53286.0,STARLINK-4165,PAYLOAD,2023-10-10 20:57:17,15.0884145,0.0001313,53.2165,178.2674,76.7089,283.405,0.00044556,6.811e-05,0.0,0 STARLINK-4165,1 53286U 22086AW  23283.87311661  .00006811  00000-0  44556-3 0  9996,2 53286  53.2165 178.2674 0001313  76.7089 283.4050 15.08841450 68213,6917.876,95.437,540.649,538.833,0.0
53286.0,STARLINK-4165,PAYLOAD,2023-10-11 09:40:22,15.08838806,0.0001513,53.2169,175.8911,83.7738,276.3426,0.00013101,1.798e-05,0.0,0 STARLINK-4165,1 53286U 22086AW  23284.40303771  .00001798  00000-0  13101-3 0  9990,2 53286  53.2169 175.8911 0001513  83.7738 276.3426 15.08838806 68135,6917.884,95.438,540.796,538.702,0.0
53286.0,STARLINK-4165,PAYLOAD,2023-10-12 09:31:09,15.08843675,0.0001502,53.2167,171.4337,92.4953,267.6212,0.00037226,5.642e-05,0.0,0 STARLINK-4165,1 53286U 22086AW  23285.39664157  .00005642  00000-0  37226-3 0  9993,2 53286  53.2167 171.4337 0001502  92.4953 267.6212 15.08843675 68441,6917.869,95.437,540.773,538.695,0.0
53286.0,STARLINK-4165,PAYLOAD,2023-10-12 22:14:15,15.08842842,0.0001427,53.216,169.0537,88.2746,271.8409,0.00043187,6.592e-05,0.0,0 STARLINK-4165,1 53286U 22086AW  23285.92656308  .00006592  00000-0  43187-3 0  9999,2 53286  53.2160 169.0537 0001427  88.2746 271.8409 15.08842842 68527,6917.872,95.437,540.724,538.75,0.0
53286.0,STARLINK-4165,PAYLOAD,2023-10-13 01:25:00,15.08855167,0.0001569,53.2173,168.457,85.7379,274.3793,0.00057508,8.88e-05,0.0,0 STARLINK-4165,1 53286U 22086AW  23286.05903897  .00008880  00000-0  57508-3 0  9996,2 53286  53.2173 168.4570 0001569  85.7379 274.3793 15.08855167 68384,6917.834,95.437,540.784,538.614,0.0
53286.0,STARLINK-4165,PAYLOAD,2023-10-13 09:21:56,15.08845926,0.0001958,53.216,166.9713,83.2859,276.8356,0.00035965,5.441e-05,0.0,0 STARLINK-4165,1 53286U 22086AW  23286.39024271  .00005441  00000-0  35965-3 0  9996,2 53286  53.2160 166.9713 0001958  83.2859 276.8356 15.08845926 68430,6917.862,95.437,541.082,538.373,0.0
53286.0,STARLINK-4165,PAYLOAD,2023-10-13 22:05:02,15.08839199,0.0001238,53.2156,164.5945,78.3711,281.742,0.00027664,4.117e-05,0.0,0 STARLINK-4165,1 53286U 22086AW  23286.92016289  .00004117  00000-0  27664-3 0  9991,2 53286  53.2156 164.5945 0001238  78.3711 281.7420 15.08839199 68677,6917.883,95.438,540.604,538.891,0.0
53286.0,STARLINK-4165,PAYLOAD,2023-10-14 09:12:44,15.08843936,0.0001426,53.215,162.5111,84.139,275.9765,0.00079774,0.00012432,0.0,0 STARLINK-4165,1 53286U 22086AW  23287.38384316  .00012432  00000-0  79774-3 0  9999,2 53286  53.2150 162.5111 0001426  84.1390 275.9765 15.08843936 68582,6917.868,95.437,540.72,538.747,0.0
53286.0,STARLINK-4165,PAYLOAD,2023-10-14 21:55:48,15.08851152,0.0001382,53.2156,160.1297,96.5604,263.5545,0.00053851,8.295e-05,0.0,0 STARLINK-4165,1 53286U 22086AW  23287.91376034  .00008295  00000-0  53851-3 0  9996,2 53286  53.2156 160.1297 0001382  96.5604 263.5545 15.08851152 68828,6917.846,95.437,540.667,538.755,0.0
53286.0,STARLINK-4165,PAYLOAD,2023-10-15 01:06:35,15.08846945,0.000117,53.2157,159.5371,86.6489,273.4637,0.00044996,6.882e-05,0.0,0 STARLINK-4165,1 53286U 22086AW  23288.04624229  .00006882  00000-0  44996-3 0  9993,2 53286  53.2157 159.5371 0001170  86.6489 273.4637 15.08846945 68680,6917.859,95.437,540.534,538.915,0.0
53286.0,STARLINK-4165,PAYLOAD,2023-10-15 09:03:31,15.08828917,0.0001672,53.2164,158.0483,96.0892,264.0291,-6.5578e-05,-1.331e-05,0.0,0 STARLINK-4165,1 53286U 22086AW  23288.37744904 -.00001331  00000-0 -65578-4 0  9998,2 53286  53.2164 158.0483 0001672  96.0892 264.0291 15.08828917 68733,6917.914,95.438,540.936,538.623,0.0
53286.0,STARLINK-4165,PAYLOAD,2023-10-15 21:46:37,15.0882361,0.0001447,53.2159,155.6697,103.6236,256.4917,-0.00010218,-1.913e-05,0.0,0 STARLINK-4165,1 53286U 22086AW  23288.90737620 -.00001913  00000-0 -10218-3 0  9990,2 53286  53.2159 155.6697 0001447 103.6236 256.4917 15.08823610 68975,6917.93,95.439,540.797,538.794,0.0
